#aV2019  4 19  0  0  0.00000000     288 DD+AD WGS84 FIT  NGA
## 2049 432000.00000000   300.00000000 58592 0.0000000000000
+   31     1  2  3  5  6  7  8  9 10 11 12 13 14 15 16 17 18
+         19 20 21 22 23 24 25 26 27 28 29 30 31 32  0  0  0
+          0  0  0  0  0  0  0  0  0  0  0  0  0  0  0  0  0
+          0  0  0  0  0  0  0  0  0  0  0  0  0  0  0  0  0
+          0  0  0  0  0  0  0  0  0  0  0  0  0  0  0  0  0
++         2  2  2  2  2  2  2  2  2  2  2  2  2  2  2  2  2
++         2  2  2  2  2  2  2  2  2  2  2  2  2  2  0  0  0
++         0  0  0  0  0  0  0  0  0  0  0  0  0  0  0  0  0
++         0  0  0  0  0  0  0  0  0  0  0  0  0  0  0  0  0
++         0  0  0  0  0  0  0  0  0  0  0  0  0  0  0  0  0
%c cc cc ccc ccc cccc cccc cccc cccc ccccc ccccc ccccc ccccc
%c cc cc ccc ccc cccc cccc cccc cccc ccccc ccccc ccccc ccccc
%f  0.0000000  0.000000000  0.00000000000  0.000000000000000
%f  0.0000000  0.000000000  0.00000000000  0.000000000000000
%i    0    0    0    0      0      0      0      0         0
%i    0    0    0    0      0      0      0      0         0
/*      NGA, ST. LOUIS,MO.                                  
/*   EPHEMERIS COMPUTED FROM 2 DAYS OF DATA                 
/*   EPOCHA v3 SMOOTHER                                     
/*   G1762 IERS2010 SATAF SATAPC                            
*  2019  4 19  4 40  0.00000000
P  1  -2326.483861  16357.322604 -20897.802374   -204.946523                    
V  1 -24455.647207   9360.104464  10448.343291     -0.082899                    
P  2  20930.891776 -15295.424476   5967.491366   -192.579485                    
V  2   7450.091629   -437.935871 -30500.197166     -0.093673                    
P  3   6298.515241  19503.031929 -16970.504574    188.284791                    
V  3 -18171.108661 -11522.234760 -19945.908509      0.001418                    
P  5  12701.046654  -9584.346796  21173.035697      1.106871                    
V  5  21875.907175  16130.543528  -5585.430457     -0.000410                    
P  6  25060.076387  -6145.561342  -6324.110015    227.178471                    
V  6  -6515.468193   5273.480090 -30683.073223     -0.095006                    
P  7  12654.748479  10851.201151  21022.009158     -7.649778                    
V  7 -23865.861444  10421.632668   8632.083884     -0.074496                    
P  8  -5860.168731  25384.931159   4607.088124   -140.436669                    
V  8  -1993.556000  -6075.570888  31385.906675     -0.013628                    
P  9   9375.686348  19032.160320  15931.041877    426.350681                    
V  9  -4216.928100  19998.246624 -21364.155367     -0.065116                    
P 10 -23215.904000  -9641.842857  -8811.530056     69.146349                    
V 10  -7562.561298  -8623.182214  28962.419696     -0.098196                    
P 11  -4153.129493  22123.809768 -14811.266042   -623.709768                    
V 11 -14036.806041  11579.259586  21782.599538      0.073837                    
P 12  -4613.797650 -19527.474031 -17707.285648    249.996236                    
V 12  17365.272403  13456.284262 -19428.525492     -0.033637                    
P 13  12722.352910 -20575.018862  10805.331059    -67.215989                    
V 13  -1090.557723  14038.261842  27768.446838      0.015616                    
P 14 -15625.677663   6505.777700 -20106.848261    -83.924834                    
V 14   4013.400608 -26005.785678 -11535.943278      0.015094                    
P 15   2700.638039 -26040.871494   2699.370043   -317.623099                    
V 15   4070.686577   3901.800666  31017.667346      0.020242                    
P 16 -12101.616541   8687.984955  21834.318104    -33.726630                    
V 16 -20890.448120 -18752.141972  -3657.881700     -0.028056                    
P 17  14101.829772   3541.117883 -21825.772508     41.292393                    
V 17  -4967.494086  28193.022794   1255.213445      0.059604                    
P 18 -11571.442763  18195.465725 -15903.385440     45.532795                    
V 18 -18324.830709   6662.421088  21756.858834      0.035703                    
P 19  15637.401254  -5627.164110 -21037.908696   -328.996144                    
V 19  -5037.069189  25461.031564 -10621.954478      0.044552                    
P 20 -22647.426860 -13980.151197   1069.955428    524.079662                    
V 20   3111.651865  -2431.272743  30923.520205      0.002938                    
P 21 -16954.736008  -7437.768627  19800.386835   -209.524332                    
V 21  20472.707451 -11666.505939  13857.322443      0.076215                    
P 22  -1055.792214  17184.983787 -20006.349790   -686.254500                    
V 22 -22569.490915 -13046.766607  -9828.269263     -0.068322                    
P 23   2239.040414  25488.587461   6599.955858   -189.640434                    
V 23  -4276.696975   7685.609615 -30111.124751      0.015046                    
P 24   5582.460836 -18001.890677 -18742.433012    -64.972988                    
V 24  22070.968926  -8739.283460  15419.761928     -0.004304                    
P 25 -15947.839702 -19593.651164  -8823.359912   -747.220785                    
V 25   9881.367705   4872.404592 -29131.126508     -0.043022                    
P 26 -19903.567922   1241.016817  17607.427071    179.713917                    
V 26 -17228.579613 -14354.436362 -18265.974097      0.098521                    
P 27 -11837.893919  18789.199648  14236.097022   -111.766742                    
V 27    203.444948 -18438.622014  24624.619571     -0.087742                    
P 28  21765.086933  12594.740308  -7790.984837    767.541506                    
V 28   6501.846964   8816.051384  30181.025476      0.003354                    
P 29  -4380.046536 -22841.419029  12797.837619    222.021580                    
V 29   4597.166040 -15680.852878 -26352.417961     -0.091464                    
P 30  21901.398311   3263.103076  14817.780393    -89.132371                    
V 30 -16717.901689   8840.082475  22605.621380     -0.068839                    
P 31 -25556.606123   6446.223339  -4844.639627     44.057437                    
V 31   4773.014765  -4456.176852 -30672.856068     -0.026420                    
P 32 -15334.526298     97.190808 -21625.051836   -125.967369                    
V 32   2821.505969 -27466.097773  -2232.124730      0.175922                    
EOF
